SL-8 R/B                
1 11574U 79089B   26077.41541438  .00000265  00000+0  88044-4 0  9993
2 11574  74.0670  74.8893 0017046 246.5879 113.3485 14.42356530437363
SL-14 R/B               
1 11672U 80005B   26077.58668579  .00000523  00000+0  50270-4 0  9993
2 11672  82.5128 298.7959 0016864 130.1893 230.0806 14.90940294477812
SL-8 R/B                
1 12139U 81003B   26077.54292724  .00018586  00000+0  47183-3 0  9998
2 12139  82.9364 281.8366 0261475 147.7821 213.9696 15.11346481316010
SL-3 R/B                
1 12465U 81046B   26077.60903574  .00008631  00000+0  19910-3 0  9993
2 12465  81.2280 279.0312 0018841 351.2680   8.8232 15.42213301439801
SL-3 R/B                
1 12904U 81103B   26077.58518865  .00004406  00000+0  19447-3 0  9998
2 12904  81.1601 202.9971 0012424 254.6801 105.3058 15.21483304974580
SL-3 R/B                
1 13154U 82039B   26077.60199547  .00002270  00000+0  13650-3 0  9997
2 13154  81.1579 205.6863 0029277 295.2380  64.5811 15.10131804382982
SL-14 R/B               
1 13553U 82092B   26077.11890876  .00000395  00000+0  41644-4 0  9999
2 13553  82.5677 133.5152 0018751 273.4594 119.8772 14.86674179330183
SL-3 R/B                
1 13819U 83010B   26077.49570598  .00012612  00000+0  25068-3 0  9998
2 13819  81.1067 351.4502 0017140  22.0984 338.0996 15.46660793359300
SL-3 R/B                
1 14208U 83075B   26077.59747890  .00008483  00000+0  22305-3 0  9996
2 14208  97.6135  82.5129 0021046 192.5801 167.4921 15.38624705331529
COSMOS 1536             
1 14699U 84013A   26077.32187109  .00005164  00000+0  21190-3 0  9999
2 14699  82.5413  99.2666 0012558 248.9361 111.0533 15.23938820273935
SL-14 R/B               
1 14820U 84027B   26077.44697757  .00000502  00000+0  54615-4 0  9998
2 14820  82.5397 236.7977 0016753 307.4941  52.4752 14.85985805248936
SL-8 R/B                
1 15483U 85006B   26076.94834749  .00000301  00000+0  10830-3 0  9997
2 15483  74.0436 245.9500 0018097 161.5600 313.5292 14.37789274155217
SL-12 R/B(2)            
1 15772U 85042D   26077.42725204  .00000014  00000+0  27577-4 0  9995
2 15772  71.1067  69.2668 0032984 113.7231 359.6598 14.21984888115631
SL-16 R/B               
1 16182U 85097B   26077.61931833  .00000255  00000+0  15154-3 0  9993
2 16182  71.0014 121.7550 0009637 248.8223 263.8312 14.16599532 88497
