[{"OBJECT_NAME":"SL-8 R/B","OBJECT_ID":"1979-089B","EPOCH":"2026-03-18T09:58:11.802432","MEAN_MOTION":14.4235653,"ECCENTRICITY":0.00170461,"INCLINATION":74.067,"RA_OF_ASC_NODE":74.8893,"ARG_OF_PERICENTER":246.5879,"MEAN_ANOMALY":113.3485,"EPHEMERIS_TYPE":0,"CLASSIFICATION_TYPE":"U","NORAD_CAT_ID":11574,"ELEMENT_SET_NO":999,"REV_AT_EPOCH":43736,"BSTAR":8.804437e-5,"MEAN_MOTION_DOT":2.65e-6,"MEAN_MOTION_DDOT":0},{"OBJECT_NAME":"SL-14 R/B","OBJECT_ID":"1980-005B","EPOCH":"2026-03-18T14:04:49.652256","MEAN_MOTION":14.90940294,"ECCENTRICITY":0.00168642,"INCLINATION":82.5128,"RA_OF_ASC_NODE":298.7959,"ARG_OF_PERICENTER":130.1893,"MEAN_ANOMALY":230.0806,"EPHEMERIS_TYPE":0,"CLASSIFICATION_TYPE":"U","NORAD_CAT_ID":11672,"ELEMENT_SET_NO":999,"REV_AT_EPOCH":47781,"BSTAR":5.0269879e-5,"MEAN_MOTION_DOT":5.23e-6,"MEAN_MOTION_DDOT":0},{"OBJECT_NAME":"SL-8 R/B","OBJECT_ID":"1981-003B","EPOCH":"2026-03-18T13:01:48.913536","MEAN_MOTION":15.11346481,"ECCENTRICITY":0.02614755,"INCLINATION":82.9364,"RA_OF_ASC_NODE":281.8366,"ARG_OF_PERICENTER":147.7821,"MEAN_ANOMALY":213.9696,"EPHEMERIS_TYPE":0,"CLASSIFICATION_TYPE":"U","NORAD_CAT_ID":12139,"ELEMENT_SET_NO":999,"REV_AT_EPOCH":31601,"BSTAR":0.00047183208,"MEAN_MOTION_DOT":0.00018586,"MEAN_MOTION_DDOT":0},{"OBJECT_NAME":"SL-3 R/B","OBJECT_ID":"1981-046B","EPOCH":"2026-03-18T14:37:00.687936","MEAN_MOTION":15.42213301,"ECCENTRICITY":0.00188411,"INCLINATION":81.228,"RA_OF_ASC_NODE":279.0312,"ARG_OF_PERICENTER":351.268,"MEAN_ANOMALY":8.8232,"EPHEMERIS_TYPE":0,"CLASSIFICATION_TYPE":"U","NORAD_CAT_ID":12465,"ELEMENT_SET_NO":999,"REV_AT_EPOCH":43980,"BSTAR":0.00019909685,"MEAN_MOTION_DOT":8.631e-5,"MEAN_MOTION_DDOT":0},{"OBJECT_NAME":"SL-3 R/B","OBJECT_ID":"1981-103B","EPOCH":"2026-03-18T14:02:40.299360","MEAN_MOTION":15.21483304,"ECCENTRICITY":0.00124242,"INCLINATION":81.1601,"RA_OF_ASC_NODE":202.9971,"ARG_OF_PERICENTER":254.6801,"MEAN_ANOMALY":105.3058,"EPHEMERIS_TYPE":0,"CLASSIFICATION_TYPE":"U","NORAD_CAT_ID":12904,"ELEMENT_SET_NO":999,"REV_AT_EPOCH":97458,"BSTAR":0.00019446835,"MEAN_MOTION_DOT":4.406e-5,"MEAN_MOTION_DDOT":0},{"OBJECT_NAME":"SL-3 R/B","OBJECT_ID":"1982-039B","EPOCH":"2026-03-18T14:26:52.408608","MEAN_MOTION":15.10131804,"ECCENTRICITY":0.00292779,"INCLINATION":81.1579,"RA_OF_ASC_NODE":205.6863,"ARG_OF_PERICENTER":295.238,"MEAN_ANOMALY":64.5811,"EPHEMERIS_TYPE":0,"CLASSIFICATION_TYPE":"U","NORAD_CAT_ID":13154,"ELEMENT_SET_NO":999,"REV_AT_EPOCH":38298,"BSTAR":0.00013649914,"MEAN_MOTION_DOT":2.27e-5,"MEAN_MOTION_DDOT":0},{"OBJECT_NAME":"SL-14 R/B","OBJECT_ID":"1982-092B","EPOCH":"2026-03-18T02:51:13.716864","MEAN_MOTION":14.86674179,"ECCENTRICITY":0.0018751,"INCLINATION":82.5677,"RA_OF_ASC_NODE":133.5152,"ARG_OF_PERICENTER":273.4594,"MEAN_ANOMALY":119.8772,"EPHEMERIS_TYPE":0,"CLASSIFICATION_TYPE":"U","NORAD_CAT_ID":13553,"ELEMENT_SET_NO":999,"REV_AT_EPOCH":33018,"BSTAR":4.1643603e-5,"MEAN_MOTION_DOT":3.95e-6,"MEAN_MOTION_DDOT":0},{"OBJECT_NAME":"SL-3 R/B","OBJECT_ID":"1983-010B","EPOCH":"2026-03-18T11:53:48.996672","MEAN_MOTION":15.46660793,"ECCENTRICITY":0.001714,"INCLINATION":81.1067,"RA_OF_ASC_NODE":351.4502,"ARG_OF_PERICENTER":22.0984,"MEAN_ANOMALY":338.0996,"EPHEMERIS_TYPE":0,"CLASSIFICATION_TYPE":"U","NORAD_CAT_ID":13819,"ELEMENT_SET_NO":999,"REV_AT_EPOCH":35930,"BSTAR":0.00025068378,"MEAN_MOTION_DOT":0.00012612,"MEAN_MOTION_DDOT":0},{"OBJECT_NAME":"SL-3 R/B","OBJECT_ID":"1983-075B","EPOCH":"2026-03-18T14:20:22.176960","MEAN_MOTION":15.38624705,"ECCENTRICITY":0.00210468,"INCLINATION":97.6135,"RA_OF_ASC_NODE":82.5129,"ARG_OF_PERICENTER":192.5801,"MEAN_ANOMALY":167.4921,"EPHEMERIS_TYPE":0,"CLASSIFICATION_TYPE":"U","NORAD_CAT_ID":14208,"ELEMENT_SET_NO":999,"REV_AT_EPOCH":33152,"BSTAR":0.00022304666,"MEAN_MOTION_DOT":8.483e-5,"MEAN_MOTION_DDOT":0},{"OBJECT_NAME":"COSMOS 1536","OBJECT_ID":"1984-013A","EPOCH":"2026-03-18T07:43:29.662176","MEAN_MOTION":15.2393882,"ECCENTRICITY":0.0012558,"INCLINATION":82.5413,"RA_OF_ASC_NODE":99.2666,"ARG_OF_PERICENTER":248.9361,"MEAN_ANOMALY":111.0533,"EPHEMERIS_TYPE":0,"CLASSIFICATION_TYPE":"U","NORAD_CAT_ID":14699,"ELEMENT_SET_NO":999,"REV_AT_EPOCH":27393,"BSTAR":0.0002119,"MEAN_MOTION_DOT":5.164e-5,"MEAN_MOTION_DDOT":0},{"OBJECT_NAME":"SL-14 R/B","OBJECT_ID":"1984-027B","EPOCH":"2026-03-18T10:43:38.862048","MEAN_MOTION":14.85985805,"ECCENTRICITY":0.00167533,"INCLINATION":82.5397,"RA_OF_ASC_NODE":236.7977,"ARG_OF_PERICENTER":307.4941,"MEAN_ANOMALY":52.4752,"EPHEMERIS_TYPE":0,"CLASSIFICATION_TYPE":"U","NORAD_CAT_ID":14820,"ELEMENT_SET_NO":999,"REV_AT_EPOCH":24893,"BSTAR":5.4614888e-5,"MEAN_MOTION_DOT":5.02e-6,"MEAN_MOTION_DDOT":0},{"OBJECT_NAME":"SL-8 R/B","OBJECT_ID":"1985-006B","EPOCH":"2026-03-17T22:45:37.223136","MEAN_MOTION":14.37789274,"ECCENTRICITY":0.00180977,"INCLINATION":74.0436,"RA_OF_ASC_NODE":245.95,"ARG_OF_PERICENTER":161.56,"MEAN_ANOMALY":313.5292,"EPHEMERIS_TYPE":0,"CLASSIFICATION_TYPE":"U","NORAD_CAT_ID":15483,"ELEMENT_SET_NO":999,"REV_AT_EPOCH":15521,"BSTAR":0.00010830048,"MEAN_MOTION_DOT":3.01e-6,"MEAN_MOTION_DDOT":0},{"OBJECT_NAME":"SL-12 R/B(2)","OBJECT_ID":"1985-042D","EPOCH":"2026-03-18T10:15:14.576256","MEAN_MOTION":14.21984888,"ECCENTRICITY":0.00329846,"INCLINATION":71.1067,"RA_OF_ASC_NODE":69.2668,"ARG_OF_PERICENTER":113.7231,"MEAN_ANOMALY":359.6598,"EPHEMERIS_TYPE":0,"CLASSIFICATION_TYPE":"U","NORAD_CAT_ID":15772,"ELEMENT_SET_NO":999,"REV_AT_EPOCH":11563,"BSTAR":2.7576563e-5,"MEAN_MOTION_DOT":1.4e-7,"MEAN_MOTION_DDOT":0},{"OBJECT_NAME":"SL-16 R/B","OBJECT_ID":"1985-097B","EPOCH":"2026-03-18T14:51:49.103712","MEAN_MOTION":14.16599532,"ECCENTRICITY":0.00096373,"INCLINATION":71.0014,"RA_OF_ASC_NODE":121.755,"ARG_OF_PERICENTER":248.8223,"MEAN_ANOMALY":263.8312,"EPHEMERIS_TYPE":0,"CLASSIFICATION_TYPE":"U","NORAD_CAT_ID":16182,"ELEMENT_SET_NO":999,"REV_AT_EPOCH":8849,"BSTAR":0.00015154319,"MEAN_MOTION_DOT":2.55e-6,"MEAN_MOTION_DDOT":0}]
